{"fetched_at":"2026-03-30T06:02:59Z","count":15439,"tles":[{"name":"STARLINK-30802","line1":"1 58150U 23166A   26087.81899273  .00000595  00000+0  32211-4 0  9998","line2":"2 58150  53.1592 131.0592 0000979  91.5344 268.5769 15.30194443136106","category":"Starlink"}]}